     2.100          NAVIGATION                              RINEX VERSION / TYPE
fic2rin                                 02/12/2015 00:25:05 PGM / RUN BY / DATE
                                                            END OF HEADER
14 15  2 12  0  0  0.0  .882688909769D-04 -.352429196937D-11  .000000000000D+00
     .750000000000D+02  .616250000000D+02  .453126017375D-08 -.235611791228D+00
     .321492552757D-05  .773087714333D-02  .821612775326D-05  .515378580475D+04
     .345600000000D+06 -.689178705215D-07  .211591448787D+01  .484287738800D-07
     .967310562173D+00  .227968750000D+03 -.196975036490D+01 -.818284084817D-08
     .839320675361D-10  .100000000000D+01  .183100000000D+04  .000000000000D+00
     .240000000000D+01  .000000000000D+00 -.931322574615D-08  .750000000000D+02
     .338406000000D+06  .400000000000D+01
15 15  2 12  0  0  0.0 -.231745187193D-03 -.227373675443D-11  .000000000000D+00
     .560000000000D+02  .750625000000D+02  .518093009225D-08 -.873089725772D+00
     .391900539398D-05  .709237146657D-02  .820495188236D-05  .515359279823D+04
     .345600000000D+06  .154599547386D-06  .199523778742D+01 -.279396772385D-07
     .933896424832D+00  .202375000000D+03  .373415903528D+00 -.842820821156D-08
     .108575951196D-09  .100000000000D+01  .183100000000D+04  .000000000000D+00
     .240000000000D+01  .000000000000D+00 -.107102096081D-07  .560000000000D+02
     .338406000000D+06  .400000000000D+01
16 15  2 12  0  0  0.0 -.157117377967D-03  .329691829393D-11  .000000000000D+00
     .320000000000D+02 -.391250000000D+02  .390051961516D-08  .873419211496D+00
    -.181421637535D-05  .805365818087D-02  .697001814842D-05  .515374812698D+04
     .345600000000D+06  .204890966415D-07 -.208617866786D+01  .931322574615D-07
     .989723893493D+00  .257187500000D+03  .238376198765D+00 -.788925719066D-08
    -.202508435289D-09  .100000000000D+01  .183100000000D+04  .000000000000D+00
     .240000000000D+01  .000000000000D+00 -.102445483208D-07  .320000000000D+02
     .338406000000D+06  .400000000000D+01
17 15  2 12  0  0  0.0 -.155367888510D-03 -.216004991671D-11  .000000000000D+00
     .540000000000D+02 -.102500000000D+02  .435553856852D-08 -.545187582394D-01
    -.491738319397D-06  .100831096061D-01  .825710594654D-05  .515371461105D+04
     .345600000000D+06 -.782310962677D-07 -.105768437022D+01  .208616256714D-06
     .971221509811D+00  .228781250000D+03 -.203667516146D+01 -.814283918194D-08
     .219652006531D-09  .100000000000D+01  .183100000000D+04  .000000000000D+00
     .240000000000D+01  .000000000000D+00 -.107102096081D-07  .540000000000D+02
     .338406000000D+06  .400000000000D+01
18 15  2 12  0  0  0.0  .378914177418D-03  .272848410532D-11  .000000000000D+00
     .820000000000D+02 -.143125000000D+02  .538308136980D-08  .143552953618D+01
    -.758096575737D-06  .156958538573D-01  .932812690735D-05  .515376042557D+04
     .345600000000D+06 -.361353158951D-06  .975288975055D+00 -.165775418282D-06
     .925186966917D+00  .182718750000D+03 -.199019771865D+01 -.859250076929D-08
    -.180364655769D-09  .100000000000D+01  .183100000000D+04  .000000000000D+00
     .240000000000D+01  .000000000000D+00 -.111758708954D-07  .820000000000D+02
     .338406000000D+06  .400000000000D+01
19 15  2 12  0  0  0.0 -.500207301229D-03 -.136424205266D-11  .000000000000D+00
     .960000000000D+02 -.206250000000D+02  .433553773541D-08 -.860882534596D+00
    -.108592212200D-05  .109215676785D-01  .776164233685D-05  .515369572830D+04
     .345600000000D+06  .247731804848D-06 -.100770472932D+01  .577419996262D-07
     .968326699220D+00  .233843750000D+03  .517373378426D+00 -.805569269479D-08
     .122147945095D-09  .100000000000D+01  .183100000000D+04  .000000000000D+00
     .240000000000D+01  .000000000000D+00 -.149011611938D-07  .960000000000D+02
     .338406000000D+06  .400000000000D+01
20 15  2 12  0  0  0.0  .288739800453D-03  .409272615798D-11  .000000000000D+00
     .760000000000D+02 -.409375000000D+01  .532879339421D-08  .123450433507D+01
    -.266358256340D-06  .582057656720D-02  .885874032974D-05  .515576867104D+04
     .345600000000D+06 -.894069671631D-07  .922587210809D+00  .186264514923D-08
     .926388597586D+00  .189156250000D+03  .123394245018D+01 -.843963725905D-08
    -.133219834855D-09  .100000000000D+01  .183100000000D+04  .000000000000D+00
     .240000000000D+01  .000000000000D+00 -.838190317154D-08  .760000000000D+02
     .338406000000D+06  .400000000000D+01
21 15  2 12  0  0  0.0 -.415662303567D-03 -.409272615798D-11  .000000000000D+00
     .400000000000D+02 -.278437500000D+02  .511664170009D-08  .245140357896D+01
    -.169686973095D-05  .221881109755D-01  .658631324768D-05  .515361268806D+04
     .345600000000D+06  .189989805222D-06 -.682161801749D-01 -.275671482086D-06
     .933815272377D+00  .234593750000D+03 -.194887067058D+01 -.802283418325D-08
     .732173355102D-10  .100000000000D+01  .183100000000D+04  .000000000000D+00
     .240000000000D+01  .000000000000D+00 -.116415321827D-07  .400000000000D+02
     .338406000000D+06  .400000000000D+01
23 15  2 12  0  0  0.0 -.881375744939D-04 -.261479726760D-11  .000000000000D+00
     .430000000000D+02  .627187500000D+02  .479269963518D-08 -.130573804711D+01
     .315718352795D-05  .974750926252D-02  .747852027416D-05  .515366567230D+04
     .345600000000D+06  .150874257088D-06  .204587494709D+01 -.102445483208D-06
     .949048963104D+00  .225281250000D+03 -.271284119931D+01 -.816105422638D-08
     .148220459691D-09  .100000000000D+01  .183100000000D+04  .000000000000D+00
     .240000000000D+01  .000000000000D+00 -.200234353542D-07  .430000000000D+02
     .338406000000D+06  .400000000000D+01
24 15  2 12  0  0  0.0 -.433032400906D-04 -.568434188608D-12  .000000000000D+00
     .113000000000D+03  .214687500000D+02  .494520598768D-08 -.197663157167D+01
     .100769102573D-05  .304876372684D-02  .455789268017D-05  .515368456459D+04
     .345600000000D+06  .372529029846D-08  .307268926911D+01 -.707805156708D-07
     .954755393989D+00  .289031250000D+03  .281701018001D+00 -.843963725905D-08
    -.357157734196D-12  .100000000000D+01  .183100000000D+04  .000000000000D+00
     .240000000000D+01  .000000000000D+00  .232830643654D-08  .113000000000D+03
     .338406000000D+06  .400000000000D+01
25 15  2 12  0  0  0.0 -.309757888317D-05 -.272848410532D-11  .000000000000D+00
     .860000000000D+02 -.490312500000D+02  .409267047615D-08  .230174694534D+01
    -.258907675743D-05  .416622101329D-02  .716187059879D-05  .515372988892D+04
     .345600000000D+06 -.614672899246D-07 -.215024277493D+01 -.558793544769D-07
     .977768293506D+00  .250031250000D+03  .661322915531D+00 -.793533053837D-08
    -.136434254463D-09  .100000000000D+01  .183100000000D+04  .000000000000D+00
     .240000000000D+01  .000000000000D+00  .512227416039D-08  .860000000000D+02
     .338406000000D+06  .400000000000D+01
26 15  2 12  0  0  0.0  .166334211826D-05  .318323145621D-11  .000000000000D+00
     .135000000000D+03  .731562500000D+02  .438196824085D-08  .159627815366D+01
     .362470746040D-05  .817072286736D-02  .762008130550D-05  .515371269798D+04
     .345600000000D+06  .143423676491D-06  .215122289054D+01 -.199303030968D-06
     .970357814681D+00  .237500000000D+03 -.141375155896D+01 -.797890378194D-08
     .111076055335D-09  .100000000000D+01  .183100000000D+04  .000000000000D+00
     .485000000000D+01  .630000000000D+02 -.372529029846D-08  .135000000000D+03
     .338406000000D+06  .400000000000D+01
27 15  2 12  0  0  0.0  .508129596710D-04  .261479726760D-11  .000000000000D+00
     .900000000000D+01 -.247812500000D+02  .435768151493D-08  .308735401783D-01
    -.141933560371D-05  .195800932124D-02  .772066414356D-05  .515369022751D+04
     .345600000000D+06  .316649675369D-07 -.110483732861D+01 -.931322574615D-08
     .966057357789D+00  .231937500000D+03  .133488269899D+00 -.804319217410D-08
     .109290266664D-09  .100000000000D+01  .183100000000D+04  .000000000000D+00
     .240000000000D+01  .000000000000D+00  .186264514923D-08  .900000000000D+01
     .338406000000D+06  .400000000000D+01
28 15  2 12  0  0  0.0  .418883282691D-03  .261479726760D-11  .000000000000D+00
     .330000000000D+02 -.390312500000D+02  .403945397376D-08  .740980270791D+00
    -.210478901863D-05  .196991610574D-01  .819005072117D-05  .515369050217D+04
     .345600000000D+06 -.262632966042D-06 -.208070938478D+01 -.335276126862D-07
     .988307696628D+00  .244375000000D+03 -.167261020981D+01 -.820105589261D-08
    -.217866217860D-09  .100000000000D+01  .183100000000D+04  .000000000000D+00
     .240000000000D+01  .000000000000D+00 -.111758708954D-07  .330000000000D+02
     .338406000000D+06  .400000000000D+01
29 15  2 12  0  0  0.0  .591563526541D-03  .227373675443D-11  .000000000000D+00
     .380000000000D+02 -.250937500000D+02  .417874549009D-08  .280266738445D+01
    -.134482979774D-05  .130656792317D-02  .837072730064D-05  .515355938530D+04
     .345600000000D+06  .186264514923D-07 -.104841126459D+01  .391155481339D-07
     .972039478512D+00  .223031250000D+03 -.865049981513D+00 -.788211403597D-08
     .204294223960D-09  .100000000000D+01  .183100000000D+04  .000000000000D+00
     .240000000000D+01  .000000000000D+00 -.977888703346D-08  .380000000000D+02
     .338406000000D+06  .400000000000D+01
30 15  2 12  0  0  0.0 -.849356874824D-04  .125055521494D-11  .000000000000D+00
     .360000000000D+02  .100312500000D+02  .486234539335D-08 -.272831081922D+01
     .588595867157D-06  .996623188257D-03  .467337667942D-05  .515377152824D+04
     .345600000000D+06  .204890966415D-07 -.312066779168D+01 -.298023223877D-07
     .957235888626D+00  .289812500000D+03  .294970148286D+01 -.832034657583D-08
    -.692886004340D-10  .100000000000D+01  .183100000000D+04  .000000000000D+00
     .240000000000D+01  .000000000000D+00  .325962901115D-08  .360000000000D+02
     .338406000000D+06  .400000000000D+01
